#dP2023  6  7  0  0  0.00000000      96 __u+U IGS14 FIT  IAC
## 2265 259200.00000000   900.00000000 60102 0.0000000000000
+  119   C06C07C08C09C10C11C12C13C14C16C19C20C21C22C23C24C25
+        C26C27C28C29C30C32C33C34C35C36C37C38C39C40C41C42C43
+        C44C45C46E02E03E04E05E07E08E09E10E11E12E13E14E15E18
+        E19E21E24E25E26E27E30E31E33E34E36G01G02G03G04G05G06
+        G07G08G09G10G11G12G13G14G15G16G17G18G19G20G21G22G23
+        G24G25G26G27G28G29G30G31G32J02J03J04R01R02R03R04R05
+        R07R08R09R11R12R13R14R15R16R17R18R19R20R21R22R24R25
++         7  7  7  7  7  7  6  7  7  7  6  6  6  6  6  6  6
++         6  6  6  6  6  6  6  6  6  6  6  6  6  6  6  6  6
++         5  6  6  4  4  4  4  4  4  5  4  5  4  4  5  4  4
++         4  4  4  4  4  4  4  4  4  4  4  3  3  3  3  3  4
++         3  3  4  3  4  3  3  3  3  4  4  3  4  4  3  4  3
++         3  3  4  3  4  3  3  4  3  9  9  9  8  7  6  6  7
++         7  7  7  7  7  8  7  7  7  7  7  7  8  7  7  7  8
%c M  cc GPS ccc cccc cccc cccc cccc ccccc ccccc ccccc ccccc
%c cc cc ccc ccc cccc cccc cccc cccc ccccc ccccc ccccc ccccc
%f  1.2500000  1.025000000  0.00000000000  0.000000000000000
%f  0.0000000  0.000000000  0.00000000000  0.000000000000000
%i    0    0    0    0      0      0      0      0         0
%i    0    0    0    0      0      0      0      0         0
/* INFORMATION & ANALYSIS CENTER (IAC)            FINAL DATA
/* S/V CLOCKS ARE ALIGNED TO GNSS TIME                      
/* G:C1WC2W R:C1PC2P E:C1XC5X C:C2IC6I J:C1CC2S             
/* PCV:IGS20_2247 OL/AL:FES2004  NONE     YN ORB:CoN CLK:CoN
*  2023 06 07 15  0  0.00000000
PC06   -994.030189  31700.591662  27945.587005   -181.750781
PC07 -15548.836393  28262.705966 -27200.080692   -136.712683
PC08 -12981.307214  39923.381037   2760.403811    465.895324
PC09   6906.438978  36248.963301  21319.903347    562.337369
PC10  -6978.702852  28470.034607 -30129.804412    -79.452084
PC11 -17373.694743 -20879.852840   6507.783821    661.455956
PC12  -1264.049159 -18930.295279  20497.174918    695.415666
PC13  -7069.974775  40250.331144   9990.634551    291.389675
PC14 -11715.068954 -11883.002119 -22360.014751    374.303259
PC16  -2977.250965  30012.836678  29831.087952     51.569846
PC19  20186.681291   5694.758336  18418.752899   -919.901909
PC20   3060.410527  15552.135321  22983.691848    518.538473
PC21  17335.613660 -16769.824191 -13992.700127   -921.223015
PC22  26570.153951  -7945.699179   2942.644416   -451.854603
PC23 -16715.170683   6166.663357  21486.929627   -950.632862
PC24   -600.019433 -27053.625025   6856.235264     35.472319
PC25 -13053.611812 -13610.049969  20568.339514    142.491416
PC26  10184.541511 -24250.509421  -9385.094306   -131.395851
PC27  -7216.143373  14568.665158 -22706.567660    151.695898
PC28 -20479.894384    114.028470 -18958.078443    112.574230
PC29  23144.232973  15336.514249   2802.225887    130.874103
PC30  10766.533734  21202.564082 -14632.987384     -0.969270
PC32 -17283.231808  16922.312400  13950.965052   -551.752569
PC33 -20203.705962  -5610.567288 -18420.137450   -891.779788
PC34 -11921.752192 -21251.074771  13567.332310    187.918114
PC35  20853.791457   -322.868030  18542.863431    612.475628
PC36  12383.632600  14643.503177 -20244.020113   -396.634604
PC37 -11315.962279  23303.967623  10364.270925   -784.821020
PC38 -16466.941133  38378.060924  -5277.202560     83.547752
PC39  -5917.494739  26849.923481  32090.039962     -3.218689
PC40 -21513.953330  22159.418925 -28835.570236    -25.524764
PC41 -26602.803267   7656.438287  -3531.774573   -926.377809
PC42  -1611.594933 -16025.037923 -22741.198174   -659.057425
PC43 -22864.096590 -15855.189199  -2012.115057     25.087437
PC44   6961.562914 -14775.889643  22605.661705    130.823317
PC45  16587.308049  -6750.536238 -21402.214351   -107.400711
PC46   1575.647061  26588.125690  -8264.490761    -59.779859
PE02 -11508.423421  24791.266338 -11350.160678     42.680019
PE03  -3338.889313  16683.942591  24225.041501    -24.074947
PE04 -17905.736098 -15922.137592 -17369.806255   -139.572604
PE05 -23023.181997   7653.804474  16970.013285    -60.188003
PE07  28984.247789   5959.054192    427.238987    -50.911681
PE08  17621.168764  15899.717927  17685.439940    -95.296965
PE09 -28988.674872  -6005.657305   -567.002230    -41.903844
PE10 -16709.569882 -19692.077647 -14479.535133   -539.472101
PE11 -17990.073210  -9453.181197 -21532.823560   2153.590146
PE12 -12915.152011 -25980.830757  -5822.532338   -570.427163
PE13  17955.422682  10295.390790  21159.098558    -19.237074
PE14 -30694.775742   -822.994040  -9449.991056    247.385161
PE15  12762.100010  26146.600982   5467.348500    -27.677500
PE18  23235.843977   3506.015462   4301.579876    154.620232
PE19   6365.365587 -15837.016193 -24170.554501  -2353.632633
PE21  22113.199755 -18634.167187  -6317.749990   -533.627621
PE24 -20265.407833    508.679642  21549.928046   -141.959166
PE25 -22211.426283  18402.937533   6647.966811   -606.363873
PE26  12342.824882 -12204.626117  23971.610761    127.179589
PE27  20555.917793  -1321.597573 -21256.693880    -68.835511
PE30   6426.687059  17026.541554 -23350.998001   -236.334380
PE31  -6911.204537 -16591.525819  23525.735178   -525.397447
PE33    -78.271882 -26427.841734  13316.877265   -443.458663
PE34    216.702434  26491.789762 -13210.649123    -49.563394
PE36 -12569.916038  11390.800495 -24264.350546    -67.752250
PG01  14845.348327    105.656330  21719.013949    179.899317
PG02  17256.970154   6701.268656  19753.442537   -588.045607
PG03  21005.672828 -10015.114420  12555.058332   -278.517678
PG04  24396.707855  -1011.323243 -10577.610210     61.968975
PG05 -15042.453598  -5210.774687 -21454.968045   -130.198801
PG06  -4732.502058 -25774.822430   4050.838792    586.111261
PG07   8920.129847 -16182.970791 -18434.464571    158.497906
PG08  25989.533160   6318.893959  -1352.533028   -126.231092
PG09  17512.644031  -9168.909951 -17830.339023   -141.231952
PG10  -7685.117846  21481.660603  13506.760076    -40.174729
PG11 -12687.052810 -20824.261607 -10573.340814   -226.302480
PG12 -21227.927067   6043.303516  14436.095000   -385.665784
PG13 -21806.584539 -13678.993382  -7148.439409    530.780991
PG14  10825.204360 -21680.789556  10705.539617     82.884106
PG15 -26473.870976  -3376.434953  -1345.015966     46.687450
PG16  11979.820924   9686.314408 -21966.466333   -493.812013
PG17   1787.353897 -15174.520109  22147.973092    717.591728
PG18  -6846.590055  18936.631910 -17239.508443   -298.181222
PG19  -7625.437521 -16534.292806  19222.684965    327.407026
PG20  -8751.447963 -13877.425455 -20884.287603    429.301887
PG21  17610.131687   9151.485322  18593.810118    153.297448
PG22  10724.972471  16750.247779  18132.141430    494.126043
PG23 -16491.603368  20617.901172   1970.223575     30.986539
PG24 -17237.711758  -4126.533682  19537.642156   -216.633763
PG25 -19876.159360  16628.361582   4822.685886    448.219620
PG26   2634.681124  18640.326915 -18722.769963    239.533583
PG27  20301.822677  13032.246685 -11815.252996     21.280376
PG28   4388.068109  25537.754332   5822.953421     82.499169
PG29 -19936.565869   5571.722563 -16750.676674   -602.061364
PG30   1776.042952 -23753.770083 -11349.813910   -512.526971
PG31  11056.074271  23095.530282  -6323.638078   -217.675346
PG32   2005.293220  15844.354621  21432.561478   -494.880760
PJ02 -35125.621364  23469.199220   5017.725392     -0.377941
PJ03 -20208.835982  22256.806280 -24971.986934      5.926775
PJ04 -28169.363247  31038.159450  11710.786701     95.153488
PR01  -3181.232214 -10556.754424 -22997.733828     58.965331
PR02 -20192.547855  -3657.883572 -15061.162032    -22.738796
PR03 -24888.762241   5257.769551   1499.359498     79.251497
PR04 -15843.832787  10741.396193  16887.308695    190.267905
PR05   1807.743317  10603.710731  23143.896841    113.803887
PR07  24824.675649  -5542.003156  -2181.726732     57.533332
PR08  15672.237103 -10912.809492 -16863.438190    -71.168063
PR09   8768.516054   8727.221898 -22297.781423    124.516358
PR11  10850.640276 -22098.478363  -6630.613734    -73.827864
PR12   1588.939643 -22332.289695  12262.663643     27.938385
PR13  -7554.062203 -10568.933393  21940.493733    -35.850267
PR14 -13330.196701   9694.722977  19489.817708     24.748254
PR15 -10684.502568  22527.165793   5430.507138     88.782527
PR16  -1719.276843  22478.311453 -11958.313059     15.386988
PR17 -14719.113395  -2914.427395 -20638.963816    636.901179
PR18  -3596.571023  11540.424506 -22462.573127     85.415043
PR19   7680.523748  19977.368853 -13883.182517   -235.437557
PR20  17272.920579  17649.039138   6475.284562    -94.243188
PR21  13901.997351   1721.033733  21303.057202    -13.432842
PR22   3627.832720 -12340.365719  22045.866689     79.666725
PR24 -18055.007603 -16608.412583  -7007.603174    -10.602071
PR25  14817.291859   3484.914966  20462.450656     60.293709
EOF
